0 FENGYUN 1C DEB
1 37473U 99025EJT 13280.75914637  .00010861  00000-0  18230-2 0  1539
2 37473 099.2039 033.6258 0436139 168.6391 192.9755 14.22354120208388
0 FENGYUN 1C DEB
1 37473U 99025EJT 13285.75361188  .00012927  00000-0  21786-2 0  1547
2 37473 099.2047 038.8638 0434149 154.0001 208.7739 14.22499049209099
0 FENGYUN 1C DEB
1 37473U 99025EJT 13290.25517223  .00012480  00000-0  21941-2 0  1559
2 37473 099.1606 043.5954 0424278 142.6497 221.1538 14.22623845209737
0 FENGYUN 1C DEB
1 37473U 99025EJT 13292.81544793  .00017336  00000-0  28915-2 0  1569
2 37473 099.2013 046.2622 0434381 134.2391 015.6673 14.22771198210090
0 FENGYUN 1C DEB
1 37473U 99025EJT 13294.26997907  .00019151  00000-0  31906-2 0  1571
2 37473 099.2023 047.7860 0434210 130.0860 265.8893 14.22820819210309
